#dP2024  3 24  0  0  0.00000000      96 __u+U IGS20 EXT  IAC
## 2307      0.00000000   900.00000000 60393 0.0000000000000
+  120   C06C07C08C09C10C11C12C13C14C16C19C20C21C22C23C24C25
+        C26C27C28C29C30C32C33C34C35C36C37C38C39C40C41C42C43
+        C44C45C46E02E03E04E05E07E08E09E10E11E12E13E14E15E18
+        E19E21E24E25E26E27E30E31E33E34E36G01G02G03G04G05G06
+        G07G08G09G10G11G12G13G14G15G16G17G18G19G20G21G22G23
+        G24G25G26G27G28G29G30G31G32J02J03J04R01R02R03R04R05
+        R07R08R09R11R12R13R14R15R16R17R18R19R20R21R22R24R25
+        R26  0  0  0  0  0  0  0  0  0  0  0  0  0  0  0  0
++        10 11  9  9 11 10  9 11  9 10  8  9  9  8 10  9  8
++         9  7  8  9  9  8 10  8  8  8  9 10 11 11  9  9  8
++         8  8  9  7  9  7  9  8  9  8  8  8  7  9  8  8  7
++         8  8  9  8  9  8  8  8  9  9  8  7  7  8  9  7  8
++         9  8  8  7  8  7  8  7  8  7  8  7  8  8  8  7  7
++         7  7  8  8  9  9  7  9  8  9 13  0  8  8  8  9  9
++         8  8  9  8  9  8  7  9  8  7  7 10  9  9  8  8  9
++         8  0  0  0  0  0  0  0  0  0  0  0  0  0  0  0  0
%c M  cc GPS ccc cccc cccc cccc cccc ccccc ccccc ccccc ccccc
%c cc cc ccc ccc cccc cccc cccc cccc ccccc ccccc ccccc ccccc
%f  0.0000000  0.000000000  0.00000000000  0.000000000000000
%f  0.0000000  0.000000000  0.00000000000  0.000000000000000
%i    0    0    0    0      0      0      0      0         0
%i    0    0    0    0      0      0      0      0         0
/* IAC                                ULTRA-RAPID PREDICTION
/* S/V CLOCKS ARE ALIGNED TO GNSS TIME                      
/* G:C1WC2W R:C1PC2P E:C1XC5X C:C2IC6I J:C1CC2S             
/* PCV:IGS20_2290 OL/AL:FES2004  NONE     YN ORB:CoN CLK:CoN
*  2024 03 24 19 45  0.00000000
PC06     -8.213634  31934.499562  27742.343221    296.085381
PC07 -16953.395058  28714.528619 -25831.503055   -884.717288
PC08 -13632.130773  39780.799651     24.805873     34.242038
PC09   5105.732637  35306.564173  23413.461169   -666.345548
PC10  -8621.648491  29109.060277 -29106.065207     31.041969
PC11  21135.321066   -672.506484  18272.925216    476.708085
PC12  24180.559712  13791.574858   2039.451701   -219.459799
PC13  -7622.355602  40591.435496   7886.763933    427.009169
PC14  25333.087657 -10917.209023   4006.570666    481.969202
PC16  -3972.588231  29080.174090  30682.429231   -416.014777
PC19 -22036.644396  16297.365947   5365.184164   -917.447483
PC20 -25056.494997   5200.499677 -11159.734018   -289.960899
PC21  13021.967429  10200.319254  22489.528813   -961.572442
PC22  -6228.269020  18689.835177  19780.201797    -63.128809
PC23   2275.963167 -27707.440347  -2450.730942   -775.786278
PC24  16204.002900   3164.411657 -22514.798758    950.418857
PC25  12433.785621 -17936.298935 -17415.040184    357.630675
PC26  10603.495993  21294.433357 -14582.728259   -267.444881
PC27 -20338.513825 -17920.577822   6577.045085    289.303880
PC28  -5861.538197 -19389.446707  19195.667049    220.822394
PC29 -14903.875017   9170.258640 -21744.120642    258.971543
PC30 -25351.857183  -6410.205032  -9719.225238    -43.620475
PC32 -13072.218334 -10113.648099 -22467.921142   -588.861546
PC33  21971.686543 -16368.892300  -5223.168542   -961.851610
PC34  25103.070437   5214.657816  11033.294250    397.258256
PC35   6379.773302  19202.338276 -19250.441205    403.394921
PC36 -12980.398744  17330.340278  17616.724867     29.202744
PC37  -9921.348977 -21834.710648  14293.168699   -948.539021
PC38 -16762.156580  37835.892978  -7672.115574    144.756202
PC39  -7981.942101  25104.826440  33039.592660     -7.702065
PC40 -23543.800716  22288.721893 -27114.740041    -62.281125
PC41   7005.109518 -18863.153989 -19268.062413   -911.461926
PC42  24590.505428  -3854.758935  12630.000090   -445.474886
PC43  15798.651469  -8530.624250  21356.103140     65.380780
PC44  20893.373426  17258.255344  -6753.592800    423.115333
PC45  -2287.844631  27697.473206   2379.690854    -77.197103
PC46 -16125.828882  -2285.299875  22652.323902   -134.325693
PE02   -859.797448 -22210.772075  19545.185620    113.871702
PE03 -10912.390990 -16401.622093 -22093.650731   -102.544616
PE04  27252.425438   8061.715899   8282.557952   -357.357455
PE05  11540.399837 -15006.348148 -22745.166389   4732.132598
PE07 -27568.305724   4587.207771   9781.857624   -110.743810
PE08 -26917.751351  -8435.975077  -8985.517512   -244.086387
PE09  27597.215260  -4454.987001  -9702.209410   -382.286877
PE10  18778.236075   7042.439056  21766.883479   -611.825913
PE11  15524.614216  -4576.386363  24775.108290   3133.540657
PE12  18948.230112  16381.810482  15791.068564   -963.218561
PE13 -15726.739791   3888.883246 -24768.745634    -20.681915
PE14 -12613.055718 -16540.143851  17689.325552     75.715819
PE15 -18840.961184 -16842.707179 -15393.056155    -93.105005
PE18   -692.319705  19122.095105 -22480.382296    472.687610
PE19   8459.946572  16666.943541  22965.227834   -371.520978
PE21 -14309.212652  25563.679647  -4229.686128   -585.649189
PE24  21917.773195 -13696.821907 -14470.868922   -669.300473
PE25  14585.007537 -25475.183984   3828.937106      2.511792
PE26  -3135.721991  22447.474961 -19038.314035    405.910076
PE27 -21812.101651  14085.290519  14198.056105   -306.982062
PE30 -16272.692214  -5824.525211  24011.693101   -128.255385
PE31  16370.444421   5548.414512 -24030.122601    -19.074084
PE33  10526.491550  27459.743890  -3384.109007      9.475017
PE34 -10915.956636 -27364.386723   2852.577659   -101.803552
PE36   3498.884800 -21967.359130  19522.132595   -203.786449
PG01  15124.806139   -978.857354  21514.832699    175.767083
PG02  18945.644111   8030.214896  17428.886007   -464.908218
PG03  18139.185271  -4985.906105  18554.361066    271.374193
PG04  26552.789905   1657.499482  -1239.520031    322.697375
PG05 -12181.038038  -8990.745551 -21991.101764   -166.601586
PG06  -3976.391118 -24039.576563  10495.456365    353.514061
PG07  10695.132494 -11711.668452 -20734.480695    -91.775119
PG08  24770.807339   6377.390584  -8033.688489     77.742372
PG09  21438.709656  -8567.594447 -13259.535240    136.005409
PG10  -9371.719247  23512.079125   7690.843172     -2.354653
PG11 -11817.976587 -23748.753362  -1756.504950   -616.574517
PG12 -18411.151166   2735.259875  18637.107329   -490.235320
PG13 -18333.983278 -13525.524726 -14042.480835    636.961242
PG14  12656.219802 -22924.739473   3779.598457    358.899331
PG15 -25097.724593  -4045.535010  -8530.584045    141.114537
PG16   7761.416683  14157.141952 -21348.569913   -333.431494
PG17   9985.294539 -13374.288251  21116.717522    712.398219
PG18  -9776.705876  12740.639015 -21105.239016   -581.850786
PG19   -977.658110 -15207.023902  21598.897666    458.553079
PG20  -4736.484778 -19753.471947 -17130.642989    382.723669
PG21  19426.257763  13405.559547  13581.454983    130.057767
PG22   7640.766582 -22871.156866  11880.971087     10.922911
PG23 -16317.574051  20273.974784  -4746.382534    184.650313
PG24 -19374.122797 -10354.847002  14799.181111   -450.746681
PG25 -18955.818222  13344.204915  12376.427326    492.139452
PG26   -150.603371  22283.182511 -14323.249812    175.533184
PG27  16030.125158  12912.371964 -17303.554401    -14.125249
PG28   2633.839378  23240.987762  12571.212835   -176.661522
PG29 -23318.330377   4980.358987 -11863.080695   -603.927679
PG30   2679.044820 -20887.829530 -15887.334185   -415.153515
PG31   9317.249639  24446.503882   2871.590761   -228.010541
PG32  -5702.591810  14755.200960  21516.819920   -616.769210
PJ02 -34888.029636  23677.700133   6206.195932     -3.266729
PJ03 -21681.700897  20427.672367 -25241.540315     -0.159194
PJ04      0.000000      0.000000      0.000000     50.599701
PR01  -1284.364756  11892.745383  22538.808007     80.570986
PR02  15913.372403   4421.732792  19513.885609    -22.631075
PR03  24375.097931  -5534.938610   5286.170272     96.951050
PR04  19406.940540 -11890.634983 -11493.487014    229.005956
PR05   4052.376224 -12052.559283 -22098.514842    128.932431
PR07 -24386.531681   6019.602545  -4250.687650     78.684098
PR08 -19040.238380  12199.487948  11838.675669    -74.857494
PR09  -7599.636880 -14053.237473  19872.744885    177.173535
PR11 -10066.981227  19357.697590  13235.302732     30.183826
PR12  -2041.092278  24747.024892  -5787.999826     38.193802
PR13   6076.586225  16354.621522 -18624.595327    -45.616757
PR14  11773.365023  -4160.888623 -22232.512946     26.264790
PR15   9837.118183 -20309.957072 -11871.916580     81.086016
PR16   2068.721676 -24788.495865   5575.495921     24.281755
PR17  18189.761288   5972.900878  16843.757811     71.889649
PR18   7697.435416  -7173.615211  23250.468972    133.784440
PR19  -4886.160606 -16485.253565  18838.309468   -270.576391
PR20 -18153.392772 -17882.853562    196.878579   -110.305329
PR21 -18090.791755  -6129.080149 -16918.541445    -87.179205
PR22  -7212.473472   8166.278159 -23039.566091    114.383138
PR24  19094.976792  16902.224908    415.605122    -49.072579
PR25 -18041.417953  -6431.404610 -16851.335498    -24.774201
PR26 -19731.312819  12068.109438  10810.021082    -28.547793
EOF
